#aV2021 10  6  0  0  0.00000000     288 DD+AD WGS84 FIT  NGA
## 2178 259200.00000000   300.00000000 59493 0.0000000000000
+   32     1  2  3  4  5  6  7  8  9 10 11 12 13 14 15 16 17
+         18 19 20 21 22 23 24 25 26 27 28 29 30 31 32  0  0
+          0  0  0  0  0  0  0  0  0  0  0  0  0  0  0  0  0
+          0  0  0  0  0  0  0  0  0  0  0  0  0  0  0  0  0
+          0  0  0  0  0  0  0  0  0  0  0  0  0  0  0  0  0
++         2  2  2  2  2  2  2  2  2  2  2  2  2  2  2  2  2
++         2  2  2  2  2  2  2  2  2  2  2  2  2  2  2  0  0
++         0  0  0  0  0  0  0  0  0  0  0  0  0  0  0  0  0
++         0  0  0  0  0  0  0  0  0  0  0  0  0  0  0  0  0
++         0  0  0  0  0  0  0  0  0  0  0  0  0  0  0  0  0
%c cc cc ccc ccc cccc cccc cccc cccc ccccc ccccc ccccc ccccc
%c cc cc ccc ccc cccc cccc cccc cccc ccccc ccccc ccccc ccccc
%f  0.0000000  0.000000000  0.00000000000  0.000000000000000
%f  0.0000000  0.000000000  0.00000000000  0.000000000000000
%i    0    0    0    0      0      0      0      0         0
%i    0    0    0    0      0      0      0      0         0
/*      NGA, ST. LOUIS,MO.                                  
/*   EPHEMERIS COMPUTED FROM 2 DAYS OF DATA                 
/*   EPOCHA v7 SMOOTHER                                     
/*   G2139 IERS2010 SATIGS SATAPC                           
*  2021 10  6  4 20  0.00000000
P  1  11071.458952 -20685.359659 -12387.751307    547.429256                    
V  1  12758.983142  -8786.339411  26987.117531     -0.108556                    
P  2 -21019.486501  13496.609548  -8486.118196   -636.024883                    
V  2   6186.119049 -10215.637900 -29246.652099     -0.019285                    
P  3   3528.786447 -14668.733854 -21967.908145   -314.539318                    
V  3  26273.127000   8474.072603  -1345.004825     -0.139647                    
P  4   1487.248973 -25127.094012  -8366.462137   -203.940361                    
V  4   4469.804340  10021.261922 -29359.182856      0.003272                    
P  5 -17779.688698   8072.756909  17907.511561    -56.723076                    
V  5 -21723.001853  -7809.686913 -17725.929771     -0.012567                    
P  6 -18779.015199    136.229907 -18743.186326     88.596048                    
V  6  17051.652406 -16705.569091 -17095.642277      0.079625                    
P  7  -3987.610386 -16316.797616  20837.642915    257.669731                    
V  7  19998.314691 -16290.721730  -9581.122025      0.064818                    
P  8   8247.051831 -18016.484480  17518.762424    -39.057323                    
V  8   6774.128515  21400.554510  19114.919654     -0.013913                    
P  9  -7726.477132 -25257.119824   2596.615532   -361.653515                    
V  9   2205.654406  -3986.632842 -31389.142991     -0.002520                    
P 10  23130.981267  11900.591204   6192.069234   -217.922915                    
V 10  -7934.222426   -279.751674  30488.768330     -0.080334                    
P 11 -22798.192121   9665.597564  -9600.111758     20.783375                    
V 11   7917.089551  -9595.200311 -28509.755297      0.008377                    
P 12  -5592.521192  14022.515646 -22103.112074   -107.460668                    
V 12 -25394.258980 -10369.972159    -25.339662     -0.054827                    
P 13 -13141.524017  10717.185955  20255.926868    195.494742                    
V 13  -3036.679178 -25911.922394  11802.420262      0.054535                    
P 14 -22594.297464 -12773.287552   5771.367452    -13.208964                    
V 14   7859.149082   -116.841306  30451.961811     -0.077287                    
P 15  -6383.780412  19340.706720  16477.753399   -116.025912                    
V 15  -9628.054580 -19850.570002  19456.035447      0.027628                    
P 16  21364.075664  -2470.043273  15635.288293   -402.343626                    
V 16  17880.911688   9305.762952 -22156.168235     -0.063199                    
P 17 -12444.462362 -18177.349782 -14394.657230    515.052932                    
V 17  -1046.150323 -19056.918000  24254.129709      0.055756                    
P 18   4788.317953  15137.555926  21266.466023    313.907691                    
V 18 -20869.978081  17170.038785  -7611.922333     -0.048557                    
P 19 -14680.385434  -9493.338204 -20313.257014     62.144957                    
V 19  -1824.044117 -25040.846431  13037.789656      0.049726                    
P 20 -24725.442810   2543.690498   8953.679868    518.783231                    
V 20 -10814.888323  -5225.008343 -28556.604036     -0.001980                    
P 21  16495.920334 -20132.507452  -2774.778483    146.242325                    
V 21   5517.834172   -848.799237  31812.206312      0.018443                    
P 22  11688.488192 -12589.041131 -20035.917342   -496.156957                    
V 22  25115.994866   6724.003769  10541.727854      0.092147                    
P 23  14666.166054  15655.208606  15687.057722     48.646790                    
V 23 -19621.986768  -3896.224039  22122.934393     -0.047386                    
P 24 -13106.931503  21681.045999  -7506.208970    248.661661                    
V 24  -9112.743087   4183.862847  29434.004994      0.068330                    
P 25   6246.455456  16741.578819 -19998.260421    219.811004                    
V 25 -23861.456014  -6624.894299 -12905.331591      0.061809                    
P 26  26087.721033   4084.027724   3995.544735    141.849785                    
V 26   4102.838379   4416.724645 -30556.757590      0.040657                    
P 27  13259.682585  -7659.573178  21473.607423   -202.466388                    
V 27   6368.126472  26976.101003   6002.661398     -0.050842                    
P 28 -24371.172701 -10230.162090   -408.380193    487.903829                    
V 28    -13.644304  -2940.112727  32104.919740     -0.071598                    
P 29   3413.144076  26301.971497   -246.003429   -422.091331                    
V 29  -2179.027837     33.744153 -32285.781468     -0.055469                    
P 30 -14238.189541  -8114.882989  21004.071766   -479.703182                    
V 30  19728.374018 -17801.909420   6280.719981     -0.036054                    
P 31  20507.404216  -1626.107115 -17152.309982   -143.463014                    
V 31 -15268.328829  15100.785528 -19337.958453     -0.019900                    
P 32  15081.294728  14210.889692 -16601.649422     -7.240515                    
V 32   2801.506091  21126.272428  20311.944130     -0.038866                    
EOF
